THOR ABLESTAR DEB       
1 00544U 61015GD  24111.59179539  .00000507  00000+0  74788-3 0  9991
2 00544  66.8740 227.7275 0180425  71.9195  35.3277 13.55446998 94835
